OPTICUBE 04             
1 41851U 16067D   18161.83970722  .00000057  00000-0  10282-4 0  9993
2 41851  97.9230 249.8782 0009012 178.3696 181.7556 14.96666706 86146
AEROCUBE 8D             
1 41852U 16067E   18162.21013057  .00000034  00000-0  83245-5 0  9991
2 41852  97.9253 250.0978 0009634 175.6751 184.4555 14.96496881 86183
AEROCUBE 8C             
1 41853U 16067F   18161.82293763 -.00000336  00000-0 -24236-4 0  9993
2 41853  97.9248 249.6692 0009946 180.0049 180.1174 14.96457246 86127
PROMETHEUS 2-1          
1 41854U 16067G   18161.89671045 -.00000009  00000-0  45760-5 0  9996
2 41854  97.9250 249.7511 0010400 180.1089 180.0131 14.96558323 86135
PROMETHEUS 2-3          
1 41855U 16067H   18161.89933288  .00000091  00000-0  13323-4 0  9996
2 41855  97.9252 249.7580 0010603 180.6028 179.5182 14.96555284 86139
ITF-2                   
1 41932U 98067KU  18161.83709646  .00025253  00000-0  16280-3 0  9996
2 41932  51.6338  13.5606 0004268 173.1949 186.9110 15.75974858 79766
WASEDA-SAT3             
1 41933U 98067KV  18161.83973886  .00045399  00000-0  21570-3 0  9997
2 41933  51.6346   6.6770 0003846 184.8159 175.2808 15.82434703 79857
AOBA-VELOX 3            
1 41935U 98067KX  18162.05888129  .00038200  00000-0  20483-3 0  9994
2 41935  51.6362   8.2313 0004102 182.1835 177.9149 15.79884938 79959
INS-1B                  
1 41954U 17008G   18161.88187594  .00001042  00000-0  47321-4 0  9994
2 41954  97.4464 225.8998 0009995  25.6540 334.5190 15.22996219 73041
BGUSAT                  
1 41999U 17008BD  18161.92709006  .00001740  00000-0  73504-4 0  9993
2 41999  97.4509 226.9832 0009526  43.1447 317.0535 15.24571913 72477
DIDO-2                  
1 42000U 17008BE  18162.15287218  .00000781  00000-0  36005-4 0  9998
2 42000  97.4481 226.5970 0009713  42.3833 317.8152 15.23188140 72486
PEASSS                  
1 42015U 17008BV  18161.93751649  .00000973  00000-0  43124-4 0  9996
2 42015  97.4478 226.8325 0007806  51.9305 308.2635 15.23996487 72960
AL-FARABI 1             
1 42016U 17008BW  18162.12876526  .00001216  00000-0  52535-4 0  9998
2 42016  97.4486 227.2154 0007675  51.8817 308.3111 15.24406921 73125
NAYIF-1 (EO-88)         
1 42017U 17008BX  18161.92619341  .00001224  00000-0  52820-4 0  9992
2 42017  97.4484 227.0206 0007669  52.6806 307.5129 15.24430657 73112
HAVELSAT                
1 42700U 98067LH  18162.16893986  .00020028  00000-0  16126-3 0  9992
2 42700  51.6360  25.5499 0003828 210.0414 150.0364 15.70914435 61075
CXBN-2                  
1 42704U 98067LM  18161.99768725  .00020112  00000-0  16504-3 0  9992
2 42704  51.6370  27.4237 0002794 147.6983 212.4186 15.70455786 60958
ICECUBE                 
1 42705U 98067LN  18161.86798043  .00049512  00000-0  27663-3 0  9998
2 42705  51.6455  20.6295 0002925 185.0228 175.0744 15.78861658 61093
PHOENIX                 
1 42706U 98067LP  18162.18369014  .00015584  00000-0  13727-3 0  9995
2 42706  51.6367  27.1603 0002051 146.9392 213.1734 15.68946071 60969
X-CUBESAT               
1 42707U 98067LQ  18162.08811747  .00022600  00000-0  17763-3 0  9991
2 42707  51.6333  25.6970 0002254 152.9837 207.1278 15.71409322 60962
QBEE50-LTU-OC           
1 42708U 98067LR  18162.09535881  .00021630  00000-0  17634-3 0  9994
2 42708  51.6372  26.5535 0002163 153.3242 206.7867 15.70561339 60917
ALTAIR PATHFINDER       
1 42711U 98067LS  18162.18735390  .00009169  00000-0  99766-4 0  9995
2 42711  51.6374  33.9498 0004384 149.7341 210.3908 15.64256053 60531
SHARC                   
1 42712U 98067LT  18162.18987104  .00015392  00000-0  16491-3 0  9996
2 42712  51.6390  35.5226 0003250 153.7403 206.3757 15.64042363 60750
ZA-AEROSAT              
1 42713U 98067LU  18162.08000882  .00013923  00000-0  12989-3 0  9991
2 42713  51.6360  30.2068 0003077 140.2734 219.8488 15.67634956 60577
LINK                    
1 42714U 98067LV  18162.19134088  .00052665  00000-0  28446-3 0  9991
2 42714  51.6261  18.7728 0003181 165.2843 194.8252 15.79583057 60845
CSUNSAT 1               
1 42715U 98067LW  18162.16522030  .00015651  00000-0  14193-3 0  9995
2 42715  51.6368  29.2958 0004585 145.2204 214.9093 15.68219091 60595
SPACECUBE               
1 42717U 98067LY  18162.05767811  .00020798  00000-0  17014-3 0  9996
2 42717  51.6347  27.0312 0002757 199.2278 160.8616 15.70505668 59985
HOOPOE                  
1 42718U 98067LZ  18161.97354405  .00028446  00000-0  20726-3 0  9990
2 42718  51.6352  24.9713 0002872 197.1382 162.9520 15.73061588 60007
CHALLENGER              
1 42721U 98067MA  18162.05669624  .00089573  00000-0  35365-3 0  9999
2 42721  51.6285  14.8410 0005439 210.8212 149.2474 15.86043858 59845
NJUST-1                 
1 42722U 98067MB  18162.20069500  .00012368  00000-0  12033-3 0  9999
2 42722  51.6370  31.0341 0005315 196.8385 163.2435 15.66706808 59642
UNSW-ECO                
1 42723U 98067MC  18161.97700631  .00030197  00000-0  21333-3 0  9993
2 42723  51.6379  25.0258 0004871 194.1163 165.9701 15.73743634 59688
LILACSAT-1              
1 42725U 98067ME  18162.12454397  .00018177  00000-0  15808-3 0  9992
2 42725  51.6370  29.0170 0004432 194.3025 165.7848 15.69117814 59567
NSIGHT-1                
1 42726U 98067MF  18162.10571496  .00004687  00000-0  59804-4 0  9997
2 42726  51.6399  37.9600 0005007 200.7016 159.3776 15.61448963 59457
SNUSAT-1                
1 42727U 98067MG  18162.07214440  .00017373  00000-0  15170-3 0  9990
2 42727  51.6351  29.3657 0006527 166.2471 193.8705 15.69045164 59529
I-INSPIRE II            
1 42731U 98067ML  18162.16286176  .00031565  00000-0  21680-3 0  9992
2 42731  51.6344  23.1920 0005816 161.0027 199.1190 15.74370213 59508
POLYITAN-2-SAU          
1 42732U 98067MM  18162.21979555  .00020368  00000-0  16191-3 0  9999
2 42732  51.6359  25.8601 0006022 155.2877 204.8410 15.71198683 59479
SNUSAT-1B               
1 42733U 98067MN  18161.98286303  .00020317  00000-0  17170-3 0  9997
2 42733  51.6362  28.7959 0006126 156.5857 203.5420 15.69720510 59417
EXALTA-1                
1 42734U 98067MP  18162.21118888  .00033668  00000-0  22511-3 0  9995
2 42734  51.6322  22.7383 0006334 181.2054 178.8931 15.74954751 59462
BEEAGLESAT              
1 42736U 98067MR  18162.10175240  .00016138  00000-0  14499-3 0  9999
2 42736  51.6360  29.5890 0005572 193.8884 166.1960 15.68415448 59478
UCLSAT                  
1 42765U 17036A   18161.83115999  .00001050  00000-0  49170-4 0  9994
2 42765  97.4012 221.7823 0013630  98.2885 261.9897 15.21838994 53748
LITUANICASAT-2          
1 42768U 17036D   18162.14954785  .00001571  00000-0  72968-4 0  9995
2 42768  97.4028 221.6989 0017579  88.6086 271.7163 15.21354442 53647
AALTO-1                 
1 42775U 17036L   18161.78216334  .00000701  00000-0  34897-4 0  9996
2 42775  97.4006 221.2341 0015983  87.7212 272.5853 15.20742008 53527
URSA MAIOR              
1 42776U 17036M   18162.16383998  .00000725  00000-0  35915-4 0  9999
2 42776  97.4012 221.6587 0015819  86.7684 273.5361 15.20819087 53584
COMPASS 2               
1 42777U 17036N   18162.15939260  .00001389  00000-0  64264-4 0  9994
2 42777  97.4033 222.0310 0014786  89.9949 270.2981 15.21717143 53592
DIAMOND RED             
1 42783U 17036U   18161.89422501  .00000887  00000-0  42456-4 0  9997
2 42783  97.4013 221.7046 0014225  98.1360 262.1490 15.21448601 53557
PEGASUS                 
1 42784U 17036V   18161.86780963  .00000995  00000-0  47016-4 0  9991
2 42784  97.4015 221.7461 0014131  98.2398 262.0441 15.21649267 53555
DIAMOND GREEN           
1 42785U 17036W   18162.15619823  .00000853  00000-0  40975-4 0  9991
2 42785  97.4015 221.9752 0014120  97.7636 262.5203 15.21451358 53584
DIAMOND BLUE            
1 42786U 17036X   18162.15533460  .00000856  00000-0  41096-4 0  9992
2 42786  97.4015 221.9745 0013953  97.9683 262.3137 15.21450957 53582
NUDTSAT                 
1 42787U 17036Y   18161.91995659  .00001457  00000-0  66301-4 0  9992
2 42787  97.4022 221.9925 0013695  97.9412 262.3379 15.22219485 53414
SUCHAI                  
1 42788U 17036Z   18161.69467872  .00001187  00000-0  55058-4 0  9996
2 42788  97.4018 221.6712 0013753  98.6394 261.6401 15.21915059 53601
SKCUBE                  
1 42789U 17036AA  18161.89118973  .00001097  00000-0  51166-4 0  9990
2 42789  97.4014 221.8598 0013588  98.0655 262.2124 15.21879111 53553
VZLUSAT-1               
1 42790U 17036AB  18161.90934711  .00001451  00000-0  66031-4 0  9991
2 42790  97.4019 221.9898 0013262  98.3122 261.9619 15.22240183 53563
ROBUSTA-1B              
1 42792U 17036AD  18161.86044596  .00001152  00000-0  53361-4 0  9991
2 42792  97.4013 221.8907 0013159  98.9939 261.2787 15.22020116 53567
CICERO 6                
1 42793U 17036AE  18161.91980689  .00000746  00000-0  35787-4 0  9990
2 42793  97.4006 221.9476 0012292  99.6792 260.5833 15.21865955 53644
D-SAT                   
1 42794U 17036AF  18161.86879704  .00000079  00000-0  12675-4 0  9990
2 42794  97.5918 216.7640 0125692 303.6933  55.2352 14.90868313 52782
TOKI                    
1 42820U 98067MU  18162.10495858  .00016219  00000-0  15103-3 0  9996
2 42820  51.6361  31.8686 0003772 135.8551 224.2746 15.67532848 52901
MAZAALAI (NUMSAT-1)     
1 42822U 98067MW  18161.88239781  .00014493  00000-0  13709-3 0  9995
2 42822  51.6364  33.3878 0003723 138.2614 221.8667 15.67248723 52843
BRAC ONNESHA            
1 42823U 98067MX  18161.87877964  .00014889  00000-0  14013-3 0  9994
2 42823  51.6369  33.3808 0005769 158.1932 201.9310 15.67338544 52843
NIGERIAEDUSAT-1         
1 42824U 98067MY  18162.09345437  .00015268  00000-0  14467-3 0  9990
2 42824  51.6372  32.5803 0005667 159.4168 200.7057 15.67147253 52868
CORVUS BC2              
1 42846U 17042X   18161.90148278  .00000020  00000-0  73404-5 0  9999
2 42846  97.5981  65.0021 0008701 209.6919 150.3807 14.91818111 49430
